[{"OBJECT_NAME":"JILIN-1 03","OBJECT_ID":"2017-002B","EPOCH":"2026-03-09T22:57:29.366496","MEAN_MOTION":15.38983812,"ECCENTRICITY":0.00069508,"INCLINATION":97.2,"RA_OF_ASC_NODE":77.6042,"ARG_OF_PERICENTER":152.8712,"MEAN_ANOMALY":207.2899,"EPHEMERIS_TYPE":0,"CLASSIFICATION_TYPE":"U","NORAD_CAT_ID":41914,"ELEMENT_SET_NO":999,"REV_AT_EPOCH":50658,"BSTAR":0.00043938316,"MEAN_MOTION_DOT":0.00016907,"MEAN_MOTION_DDOT":0},{"OBJECT_NAME":"LEMUR-2-BASS","OBJECT_ID":"2023-174D","EPOCH":"2026-03-09T18:14:19.521888","MEAN_MOTION":15.39769194,"ECCENTRICITY":0.00082733,"INCLINATION":97.3876,"RA_OF_ASC_NODE":152.3241,"ARG_OF_PERICENTER":162.4261,"MEAN_ANOMALY":197.7273,"EPHEMERIS_TYPE":0,"CLASSIFICATION_TYPE":"U","NORAD_CAT_ID":58259,"ELEMENT_SET_NO":999,"REV_AT_EPOCH":13004,"BSTAR":0.00047558591,"MEAN_MOTION_DOT":0.00018791,"MEAN_MOTION_DDOT":0}]
